{"type":"FeatureCollection", "features": [
{"type":"Feature","geometry":{"type":"Polygon","coordinates":[[[2.16471,41.38593],[2.16401,41.3854],[2.16309,41.37875],[2.16678,41.37591],[2.16779,41.37517],[2.1678,41.37498],[2.17,41.37496],[2.17353,41.37475],[2.17504,41.37465],[2.1753,41.37462],[2.17553,41.37451],[2.17574,41.37429],[2.17561,41.37421],[2.1755,41.37406],[2.17546,41.37393],[2.17546,41.3738],[2.17551,41.37367],[2.17563,41.37352],[2.17547,41.37333],[2.1763,41.37295],[2.17709,41.37275],[2.17729,41.37251],[2.17762,41.37236],[2.17783,41.37226],[2.1819,41.37041],[2.1821,41.37039],[2.18301,41.37154],[2.18298,41.37161],[2.18128,41.37239],[2.17812,41.37382],[2.17827,41.37401],[2.17798,41.37414],[2.17848,41.37477],[2.17994,41.37659],[2.18025,41.37698],[2.1823,41.37955],[2.18251,41.37946],[2.18318,41.37773],[2.18325,41.37755],[2.18242,41.37649],[2.18151,41.37535],[2.18165,41.37489],[2.18292,41.37431],[2.18306,41.37434],[2.1843,41.37589],[2.18487,41.37663],[2.18499,41.37675],[2.18451,41.37797],[2.18417,41.37887],[2.18355,41.38045],[2.18467,41.3807],[2.18592,41.38011],[2.18605,41.37979],[2.18595,41.37976],[2.18603,41.37955],[2.18645,41.37965],[2.18726,41.3776],[2.18644,41.37741],[2.18644,41.37734],[2.1872,41.37723],[2.18694,41.37623],[2.18689,41.37601],[2.1866,41.37605],[2.18684,41.37591],[2.18683,41.37568],[2.18693,41.37562],[2.18598,41.37527],[2.1854,41.37503],[2.18531,41.37498],[2.18473,41.37503],[2.18472,41.37497],[2.18527,41.37492],[2.18521,41.37453],[2.18455,41.37464],[2.18454,41.37458],[2.1852,41.37448],[2.18514,41.37408],[2.18449,41.37422],[2.18447,41.37417],[2.18513,41.37403],[2.18507,41.37364],[2.18447,41.37381],[2.18445,41.37376],[2.18506,41.37358],[2.185,41.37323],[2.18494,41.37321],[2.18442,41.37341],[2.18439,41.37336],[2.18499,41.37313],[2.18493,41.37279],[2.18487,41.37277],[2.1843,41.37303],[2.18426,41.37299],[2.18493,41.37268],[2.18491,41.37266],[2.18424,41.37296],[2.18423,41.37295],[2.18489,41.37265],[2.18553,41.37259],[2.18564,41.37264],[2.18593,41.37453],[2.18666,41.37482],[2.18749,41.37456],[2.18712,41.37387],[2.1868,41.37356],[2.18684,41.37354],[2.18709,41.37379],[2.18682,41.37329],[2.18712,41.37319],[2.18755,41.37316],[2.1874,41.37228],[2.18592,41.3724],[2.1858,41.37169],[2.18616,41.37165],[2.18615,41.37159],[2.1858,41.37162],[2.18581,41.37148],[2.18577,41.37121],[2.18651,41.37115],[2.18651,41.37116],[2.18721,41.3711],[2.18714,41.37064],[2.18471,41.3709],[2.18461,41.37085],[2.18456,41.37054],[2.18464,41.37045],[2.18496,41.37042],[2.1847,41.36901],[2.18462,41.36861],[2.1847,41.36853],[2.18519,41.36848],[2.18515,41.36822],[2.18525,41.36814],[2.18569,41.3681],[2.18568,41.36804],[2.18595,41.36803],[2.18599,41.36826],[2.18594,41.36839],[2.18586,41.36845],[2.18596,41.36903],[2.18617,41.37013],[2.1872,41.37001],[2.18688,41.3683],[2.18697,41.36829],[2.18686,41.3678],[2.18668,41.36691],[2.18603,41.36615],[2.18536,41.36536],[2.18513,41.36569],[2.18498,41.36567],[2.18493,41.36559],[2.18494,41.36526],[2.18513,41.3653],[2.18531,41.36475],[2.18543,41.36471],[2.18561,41.36475],[2.18597,41.36422],[2.18648,41.36404],[2.1867,41.36407],[2.18678,41.36418],[2.18615,41.36441],[2.18586,41.36483],[2.18592,41.36494],[2.18631,41.36521],[2.18669,41.3655],[2.18704,41.36591],[2.18726,41.36625],[2.18744,41.36669],[2.18756,41.36678],[2.18778,41.36708],[2.18793,41.36726],[2.18806,41.36722],[2.18892,41.36686],[2.18925,41.36674],[2.1893,41.3667],[2.18923,41.36653],[2.18897,41.36612],[2.18879,41.36587],[2.18759,41.36402],[2.1875,41.36383],[2.1875,41.36371],[2.18741,41.36358],[2.18726,41.36342],[2.18719,41.36344],[2.18687,41.36341],[2.18673,41.36336],[2.18668,41.36322],[2.18713,41.36313],[2.18713,41.36296],[2.1868,41.36204],[2.18663,41.36163],[2.18626,41.36067],[2.18587,41.35967],[2.18528,41.35811],[2.18512,41.35815],[2.18504,41.35798],[2.18466,41.35806],[2.1846,41.3579],[2.18536,41.35773],[2.18584,41.35895],[2.18611,41.35969],[2.18637,41.36035],[2.18685,41.36159],[2.18709,41.36154],[2.18715,41.36171],[2.18709,41.36172],[2.18751,41.36279],[2.18773,41.36308],[2.18776,41.36347],[2.18803,41.36379],[2.1884,41.36446],[2.18981,41.36665],[2.19013,41.36705],[2.19016,41.36713],[2.19045,41.36764],[2.19186,41.36981],[2.19187,41.36992],[2.19179,41.36998],[2.19157,41.37004],[2.19146,41.36993],[2.19111,41.36939],[2.19087,41.3694],[2.19035,41.36952],[2.19016,41.36964],[2.18985,41.36993],[2.18969,41.37016],[2.18953,41.3705],[2.18949,41.37069],[2.18948,41.3711],[2.18951,41.37156],[2.18969,41.37241],[2.19024,41.37387],[2.19086,41.37519],[2.1913,41.37584],[2.19168,41.37624],[2.19195,41.37645],[2.19223,41.37664],[2.19277,41.37684],[2.19321,41.37692],[2.19344,41.37692],[2.1932,41.37708],[2.19297,41.37742],[2.19287,41.37764],[2.19282,41.37794],[2.19287,41.3784],[2.19297,41.37874],[2.19318,41.3792],[2.19342,41.37958],[2.19395,41.38021],[2.1945,41.38071],[2.19498,41.38097],[2.19653,41.38041],[2.19654,41.3803],[2.19672,41.38024],[2.19691,41.38028],[2.19694,41.38045],[2.19682,41.38057],[2.19665,41.38052],[2.19535,41.38099],[2.19568,41.38152],[2.19696,41.38107],[2.19702,41.38095],[2.19717,41.38096],[2.19732,41.38112],[2.19724,41.38121],[2.19712,41.38124],[2.19698,41.38121],[2.19546,41.38174],[2.19546,41.38207],[2.19557,41.38252],[2.19581,41.38302],[2.19593,41.38319],[2.19631,41.3836],[2.19656,41.38383],[2.197,41.3841],[2.19722,41.38421],[2.19785,41.38443],[2.19819,41.38448],[2.19824,41.38435],[2.19833,41.38438],[2.19823,41.3847],[2.19854,41.3849],[2.19861,41.385],[2.19908,41.38464],[2.19953,41.38486],[2.19972,41.38499],[2.19642,41.38747],[2.19623,41.38745],[2.196,41.38751],[2.19584,41.38765],[2.19581,41.38781],[2.19575,41.38785],[2.19357,41.38624],[2.19149,41.38783],[2.18874,41.3899],[2.1879,41.39054],[2.18677,41.39139],[2.18459,41.38976],[2.18238,41.39142],[2.18132,41.39222],[2.18023,41.39135],[2.17986,41.39105],[2.17749,41.39016],[2.17585,41.38895],[2.17341,41.38895],[2.17276,41.38847],[2.17151,41.38704],[2.17114,41.38684],[2.17028,41.38588],[2.16996,41.38567],[2.16977,41.38557],[2.16936,41.38554],[2.16471,41.38593]]]},"properties":{"distrito":"d01","id":"d01"}},
{"type":"Feature","geometry":{"type":"Polygon","coordinates":[[[2.16996,41.38567],[2.17028,41.38588],[2.17114,41.38684],[2.17151,41.38704],[2.17276,41.38847],[2.17341,41.38895],[2.17585,41.38895],[2.17749,41.39016],[2.17986,41.39105],[2.18023,41.39135],[2.18132,41.39222],[2.18238,41.39142],[2.18673,41.39464],[2.18666,41.39476],[2.18674,41.39492],[2.18687,41.39497],[2.1869,41.40166],[2.18518,41.40296],[2.18453,41.40345],[2.18567,41.40431],[2.18338,41.40604],[2.17888,41.40945],[2.17547,41.41204],[2.17433,41.41118],[2.16866,41.40693],[2.17204,41.40437],[2.16978,41.40267],[2.16735,41.40086],[2.16622,41.40171],[2.16525,41.40098],[2.15923,41.39646],[2.15571,41.39557],[2.15471,41.39532],[2.14498,41.39286],[2.145,41.39271],[2.14494,41.39255],[2.14484,41.39246],[2.14458,41.39237],[2.14434,41.39238],[2.14396,41.39147],[2.1438,41.39103],[2.14365,41.3905],[2.14353,41.39004],[2.14294,41.38768],[2.14275,41.3866],[2.14264,41.38562],[2.1423,41.38072],[2.1429,41.38026],[2.14824,41.37623],[2.14896,41.37577],[2.14923,41.37557],[2.14977,41.37517],[2.1499,41.37507],[2.15099,41.37504],[2.15403,41.375],[2.15624,41.37501],[2.1577,41.375],[2.1678,41.37498],[2.16779,41.37517],[2.16678,41.37591],[2.16309,41.37875],[2.16401,41.3854],[2.16471,41.38593],[2.16936,41.38554],[2.16977,41.38557],[2.16996,41.38567]]]},"properties":{"distrito":"d02","id":"d02"}},
{"type":"Feature","geometry":{"type":"MultiPolygon","coordinates":[[[[2.1678,41.37498],[2.1577,41.375],[2.15624,41.37501],[2.15403,41.375],[2.15099,41.37504],[2.1499,41.37507],[2.14977,41.37517],[2.14923,41.37557],[2.14896,41.37577],[2.14824,41.37623],[2.1429,41.38026],[2.1423,41.38072],[2.14264,41.38562],[2.14071,41.38417],[2.13906,41.38322],[2.13761,41.38257],[2.13481,41.38153],[2.13167,41.3806],[2.13084,41.38027],[2.12915,41.37939],[2.12758,41.37856],[2.12505,41.37708],[2.1227,41.37567],[2.12179,41.37569],[2.12184,41.37558],[2.12208,41.37541],[2.12324,41.37485],[2.12369,41.37442],[2.12382,41.37425],[2.12423,41.37358],[2.1243,41.37352],[2.12487,41.37322],[2.12545,41.37289],[2.12601,41.3725],[2.12645,41.37222],[2.1273,41.37163],[2.12814,41.37118],[2.12887,41.37092],[2.12923,41.37073],[2.13,41.37008],[2.13024,41.36989],[2.13047,41.36968],[2.13065,41.36947],[2.13104,41.36893],[2.13126,41.3686],[2.13163,41.36797],[2.13189,41.36725],[2.13203,41.36678],[2.13289,41.36554],[2.13287,41.36536],[2.13355,41.36395],[2.13366,41.36361],[2.1338,41.36351],[2.13409,41.36329],[2.13543,41.36226],[2.13499,41.36151],[2.13487,41.36134],[2.13456,41.36104],[2.13297,41.35985],[2.13331,41.35938],[2.13285,41.35919],[2.13337,41.35848],[2.13322,41.35843],[2.13321,41.35802],[2.13319,41.35742],[2.1331,41.35688],[2.13297,41.3565],[2.13319,41.35618],[2.13207,41.35574],[2.1339,41.35306],[2.13377,41.35301],[2.13504,41.3513],[2.1353,41.35099],[2.13742,41.34877],[2.13707,41.34865],[2.13679,41.34836],[2.13212,41.34677],[2.13122,41.34645],[2.12874,41.34552],[2.12809,41.3453],[2.1112,41.3397],[2.10804,41.33861],[2.10137,41.33633],[2.10053,41.33604],[2.10225,41.33535],[2.10277,41.3351],[2.10313,41.3349],[2.10413,41.33434],[2.10479,41.33393],[2.10539,41.33349],[2.10583,41.33316],[2.10657,41.33258],[2.10765,41.33174],[2.10838,41.3311],[2.10875,41.33073],[2.11013,41.32893],[2.11138,41.32725],[2.1123,41.32612],[2.11311,41.3256],[2.11404,41.32488],[2.11565,41.32389],[2.11704,41.32332],[2.1189,41.32273],[2.12175,41.32207],[2.12314,41.32181],[2.1258,41.32135],[2.12852,41.32096],[2.13071,41.32077],[2.13212,41.32081],[2.13258,41.32085],[2.13977,41.32112],[2.14127,41.32109],[2.14374,41.32094],[2.14574,41.32075],[2.14662,41.32078],[2.14686,41.32075],[2.14771,41.32076],[2.14952,41.32074],[2.14973,41.32076],[2.14986,41.32068],[2.1507,41.32153],[2.15082,41.32167],[2.15173,41.32315],[2.15227,41.32296],[2.15235,41.32308],[2.15237,41.32319],[2.15261,41.32363],[2.15271,41.32398],[2.1529,41.3244],[2.15305,41.32495],[2.15305,41.32502],[2.15318,41.32549],[2.15327,41.32566],[2.15337,41.32597],[2.15341,41.32617],[2.15355,41.3265],[2.15364,41.32665],[2.15388,41.3275],[2.154,41.32768],[2.15417,41.32762],[2.15425,41.3275],[2.15404,41.32732],[2.15406,41.32724],[2.15426,41.32722],[2.15443,41.32735],[2.1545,41.32747],[2.15448,41.32762],[2.1543,41.32786],[2.15478,41.32784],[2.15698,41.32783],[2.15885,41.32783],[2.15897,41.32776],[2.1589,41.32757],[2.15883,41.32755],[2.15872,41.32728],[2.15882,41.32716],[2.15909,41.32715],[2.1592,41.32722],[2.15931,41.32742],[2.15946,41.32783],[2.15953,41.32796],[2.15973,41.32824],[2.15981,41.32851],[2.16,41.329],[2.16029,41.32969],[2.16086,41.33101],[2.1611,41.33159],[2.16132,41.33205],[2.16139,41.33224],[2.16157,41.33268],[2.16167,41.33288],[2.16204,41.33372],[2.16231,41.33435],[2.16258,41.33489],[2.16294,41.33572],[2.16334,41.3365],[2.16345,41.3368],[2.16363,41.33718],[2.16364,41.33732],[2.16375,41.33737],[2.16371,41.33745],[2.16378,41.33767],[2.16394,41.33801],[2.16481,41.33788],[2.16489,41.33791],[2.1651,41.33788],[2.16502,41.33761],[2.16518,41.33759],[2.16539,41.33831],[2.16524,41.33834],[2.16515,41.33807],[2.16494,41.33811],[2.16487,41.33818],[2.16408,41.33832],[2.16461,41.3395],[2.16493,41.34022],[2.16515,41.34027],[2.1656,41.34016],[2.16573,41.34061],[2.16563,41.34063],[2.16553,41.34025],[2.16518,41.34034],[2.16523,41.34056],[2.16511,41.34067],[2.16532,41.34114],[2.16542,41.34118],[2.16574,41.34113],[2.16606,41.34107],[2.16618,41.34109],[2.16625,41.34123],[2.16617,41.34133],[2.16598,41.34135],[2.16586,41.34132],[2.16538,41.34138],[2.16509,41.34143],[2.16491,41.34152],[2.16451,41.34152],[2.16421,41.34154],[2.16361,41.34167],[2.16363,41.34179],[2.16372,41.34186],[2.16395,41.34184],[2.16404,41.34201],[2.16407,41.34213],[2.1642,41.34211],[2.16424,41.34223],[2.16253,41.3425],[2.1625,41.34238],[2.16264,41.34236],[2.16259,41.34213],[2.16264,41.34204],[2.16284,41.34201],[2.16281,41.34186],[2.16272,41.3418],[2.16208,41.34194],[2.16176,41.34197],[2.16149,41.34204],[2.16137,41.34203],[2.16103,41.34209],[2.16116,41.34239],[2.16118,41.34259],[2.15948,41.34325],[2.15921,41.34325],[2.15844,41.34276],[2.15825,41.34259],[2.15799,41.3426],[2.15787,41.34259],[2.15764,41.3425],[2.15747,41.34241],[2.15715,41.34232],[2.15709,41.34241],[2.15685,41.34229],[2.15696,41.34218],[2.15638,41.34192],[2.15625,41.34184],[2.15609,41.34161],[2.15585,41.3412],[2.15563,41.34086],[2.15555,41.34077],[2.15537,41.34042],[2.15534,41.3404],[2.1551,41.33995],[2.15489,41.33967],[2.15482,41.33951],[2.15474,41.33944],[2.15463,41.33924],[2.15449,41.33908],[2.1544,41.33906],[2.15433,41.33893],[2.1544,41.33883],[2.15423,41.33859],[2.1541,41.33833],[2.15386,41.33797],[2.15378,41.33781],[2.15367,41.33783],[2.15358,41.33774],[2.15367,41.33766],[2.15356,41.33746],[2.15344,41.33731],[2.15328,41.33705],[2.15312,41.33675],[2.15302,41.33662],[2.15293,41.33643],[2.15279,41.33643],[2.15273,41.33632],[2.1528,41.33622],[2.15238,41.33559],[2.15229,41.33538],[2.15209,41.33505],[2.15194,41.33504],[2.15188,41.33494],[2.15196,41.33486],[2.15138,41.33394],[2.15127,41.33374],[2.15114,41.33374],[2.15107,41.33364],[2.15116,41.33358],[2.15112,41.33349],[2.15093,41.33323],[2.15094,41.33321],[2.15072,41.3329],[2.15071,41.33285],[2.15049,41.33251],[2.15035,41.33247],[2.1503,41.33236],[2.15036,41.33226],[2.15,41.33177],[2.14976,41.33135],[2.14957,41.33123],[2.14949,41.33108],[2.14953,41.33095],[2.14937,41.33073],[2.14892,41.33],[2.14868,41.33002],[2.14769,41.33037],[2.1459,41.33099],[2.14609,41.33129],[2.14585,41.33137],[2.14728,41.3337],[2.14428,41.33475],[2.14531,41.33643],[2.14563,41.33632],[2.14561,41.33655],[2.14955,41.33667],[2.14957,41.33668],[2.14988,41.33895],[2.15004,41.34006],[2.15092,41.34648],[2.15187,41.34641],[2.15184,41.34626],[2.1518,41.34591],[2.15177,41.34576],[2.15188,41.34578],[2.15196,41.3464],[2.15274,41.34634],[2.15264,41.34563],[2.15301,41.3456],[2.15285,41.34449],[2.15322,41.34446],[2.15301,41.34294],[2.15311,41.34273],[2.15331,41.3427],[2.15769,41.34519],[2.15767,41.34521],[2.16149,41.34738],[2.1625,41.34795],[2.16324,41.34837],[2.16314,41.34846],[2.16338,41.34864],[2.16363,41.3485],[2.16356,41.3484],[2.16691,41.34714],[2.16761,41.34821],[2.17062,41.35281],[2.17093,41.35327],[2.17281,41.35615],[2.17305,41.3565],[2.17296,41.35659],[2.1699,41.35865],[2.1703,41.35927],[2.17093,41.36025],[2.17501,41.35875],[2.17533,41.35862],[2.17546,41.35864],[2.1761,41.35962],[2.17613,41.35961],[2.17674,41.36055],[2.17617,41.36076],[2.17616,41.36074],[2.17491,41.3612],[2.17404,41.36151],[2.17369,41.36165],[2.17384,41.36188],[2.17348,41.36204],[2.17598,41.36532],[2.17682,41.36502],[2.17928,41.36412],[2.17899,41.36368],[2.17931,41.36356],[2.18024,41.36499],[2.18072,41.36575],[2.18075,41.36584],[2.1807,41.3659],[2.17983,41.36622],[2.17968,41.36598],[2.17652,41.36713],[2.17669,41.3674],[2.17639,41.36742],[2.17668,41.36939],[2.17704,41.36936],[2.17711,41.36982],[2.17675,41.36985],[2.17709,41.37214],[2.17738,41.37212],[2.17746,41.37216],[2.17762,41.37236],[2.17729,41.37251],[2.17709,41.37275],[2.1763,41.37295],[2.17547,41.37333],[2.17563,41.37352],[2.17551,41.37367],[2.17546,41.3738],[2.17546,41.37393],[2.1755,41.37406],[2.17561,41.37421],[2.17574,41.37429],[2.17553,41.37451],[2.1753,41.37462],[2.17504,41.37465],[2.17353,41.37475],[2.17,41.37496],[2.1678,41.37498]]],[[[2.17521,41.34984],[2.17516,41.34991],[2.17528,41.35055],[2.17537,41.35068],[2.17543,41.35087],[2.17568,41.35112],[2.17574,41.35112],[2.17587,41.35128],[2.17596,41.35152],[2.17606,41.35167],[2.17599,41.35179],[2.17605,41.352],[2.17602,41.35206],[2.17609,41.35231],[2.17623,41.35248],[2.17643,41.35266],[2.17646,41.35276],[2.17661,41.35297],[2.17662,41.35306],[2.17671,41.35314],[2.17675,41.35329],[2.17682,41.35337],[2.17701,41.35367],[2.17722,41.35393],[2.17727,41.35406],[2.17747,41.35434],[2.17751,41.35445],[2.17763,41.35471],[2.17772,41.35482],[2.17787,41.35509],[2.178,41.35523],[2.17805,41.35534],[2.17818,41.35554],[2.17838,41.35577],[2.17845,41.35595],[2.17863,41.35615],[2.17876,41.35637],[2.17883,41.35644],[2.17884,41.35653],[2.17893,41.3566],[2.17898,41.35672],[2.17934,41.35723],[2.17941,41.35738],[2.17949,41.35745],[2.17952,41.35757],[2.17976,41.35795],[2.17993,41.35813],[2.17995,41.35826],[2.18004,41.35835],[2.18018,41.35863],[2.18031,41.35876],[2.18042,41.35903],[2.18064,41.35931],[2.18077,41.35956],[2.18099,41.35987],[2.18111,41.35999],[2.18116,41.36014],[2.18156,41.36086],[2.1817,41.3611],[2.1821,41.3617],[2.18238,41.36216],[2.18281,41.36279],[2.18304,41.36316],[2.18314,41.36324],[2.18343,41.36328],[2.18348,41.36334],[2.1834,41.36368],[2.18332,41.36412],[2.18326,41.36436],[2.18308,41.36486],[2.18328,41.36491],[2.18306,41.3652],[2.18286,41.36516],[2.1829,41.36485],[2.1824,41.36475],[2.1809,41.36242],[2.1791,41.35964],[2.17804,41.35798],[2.17776,41.35757],[2.17709,41.35652],[2.17673,41.35597],[2.17627,41.35524],[2.17527,41.3537],[2.17254,41.34948],[2.17242,41.34929],[2.1721,41.3494],[2.17199,41.34923],[2.17192,41.34906],[2.17187,41.34885],[2.17222,41.34881],[2.17129,41.34452],[2.17151,41.34452],[2.17155,41.34469],[2.1717,41.34472],[2.17225,41.34431],[2.17234,41.34419],[2.17234,41.34403],[2.1723,41.34374],[2.17216,41.34322],[2.17207,41.34277],[2.17201,41.34255],[2.1719,41.34188],[2.17186,41.34179],[2.1718,41.34151],[2.17179,41.34134],[2.17161,41.34063],[2.1716,41.34053],[2.17152,41.34032],[2.17165,41.34025],[2.17205,41.34024],[2.17213,41.34017],[2.17205,41.33983],[2.17193,41.33947],[2.17178,41.33866],[2.17101,41.33875],[2.17097,41.33856],[2.17111,41.33832],[2.17109,41.33819],[2.17092,41.33745],[2.17091,41.33718],[2.1708,41.3366],[2.17073,41.33632],[2.17068,41.33617],[2.17061,41.33586],[2.17054,41.33566],[2.17055,41.33554],[2.1707,41.33541],[2.17078,41.33511],[2.17107,41.33508],[2.17102,41.33486],[2.17105,41.3348],[2.17095,41.3341],[2.17014,41.33419],[2.17021,41.33451],[2.17021,41.33462],[2.17005,41.33456],[2.16997,41.33424],[2.16999,41.33413],[2.17013,41.33406],[2.17112,41.33393],[2.17114,41.33392],[2.171,41.33332],[2.17084,41.33261],[2.17069,41.33199],[2.17044,41.33089],[2.17038,41.33066],[2.17009,41.3294],[2.16995,41.32881],[2.16979,41.3281],[2.1697,41.32777],[2.16962,41.32739],[2.1694,41.32648],[2.16936,41.32637],[2.1695,41.32594],[2.1696,41.32557],[2.16983,41.32503],[2.16995,41.3246],[2.17011,41.32416],[2.17017,41.32391],[2.17027,41.32361],[2.17034,41.32349],[2.17037,41.32331],[2.17048,41.32305],[2.17052,41.32289],[2.17065,41.32257],[2.17068,41.32241],[2.1708,41.32216],[2.1709,41.3218],[2.17102,41.32144],[2.17115,41.32111],[2.17117,41.32097],[2.17125,41.32084],[2.17131,41.32061],[2.17141,41.32035],[2.17161,41.31969],[2.17168,41.31954],[2.17174,41.31931],[2.17185,41.31904],[2.17199,41.31865],[2.17207,41.31835],[2.1722,41.31803],[2.17241,41.31745],[2.1724,41.31738],[2.17229,41.31733],[2.17232,41.31716],[2.17241,41.31708],[2.17261,41.31704],[2.17281,41.31709],[2.17293,41.31722],[2.17294,41.31735],[2.17272,41.31792],[2.17257,41.31842],[2.17216,41.31963],[2.17203,41.32006],[2.17157,41.32137],[2.17133,41.32213],[2.17082,41.32361],[2.17055,41.32443],[2.17036,41.32495],[2.17002,41.32601],[2.1699,41.32634],[2.1699,41.32651],[2.16999,41.32681],[2.16998,41.32695],[2.17004,41.32727],[2.17019,41.32768],[2.17045,41.32878],[2.17077,41.33017],[2.17109,41.33159],[2.17139,41.33292],[2.17164,41.33401],[2.17172,41.33444],[2.17178,41.33466],[2.17195,41.33517],[2.17192,41.33535],[2.17205,41.3358],[2.17208,41.33608],[2.17214,41.33628],[2.17211,41.33633],[2.17216,41.33657],[2.1722,41.33659],[2.17221,41.33677],[2.1723,41.33696],[2.17235,41.33723],[2.17234,41.33746],[2.17238,41.33757],[2.17245,41.33763],[2.17244,41.33771],[2.17256,41.33793],[2.17253,41.33818],[2.17259,41.33825],[2.17258,41.33844],[2.17266,41.33855],[2.17265,41.33873],[2.17275,41.33905],[2.17275,41.33919],[2.1728,41.33944],[2.17287,41.3395],[2.17288,41.33974],[2.17297,41.33991],[2.17296,41.34011],[2.17301,41.34014],[2.17303,41.34036],[2.17309,41.34055],[2.17308,41.3407],[2.17317,41.34087],[2.17315,41.34106],[2.1732,41.34126],[2.17326,41.34137],[2.17334,41.34164],[2.17338,41.34194],[2.17345,41.34209],[2.17347,41.34244],[2.17353,41.3426],[2.17361,41.3427],[2.1736,41.34291],[2.17368,41.34308],[2.17364,41.34319],[2.17371,41.34338],[2.17369,41.34351],[2.17376,41.34362],[2.17379,41.34394],[2.17387,41.34402],[2.17384,41.34409],[2.17392,41.3443],[2.17399,41.34441],[2.17394,41.34453],[2.174,41.34461],[2.17398,41.34483],[2.17407,41.34499],[2.17407,41.34516],[2.17414,41.34522],[2.17421,41.34559],[2.17417,41.34576],[2.17425,41.34592],[2.17426,41.34609],[2.1743,41.34631],[2.17436,41.34642],[2.17438,41.34661],[2.17445,41.34667],[2.17446,41.34686],[2.17454,41.34687],[2.17449,41.34699],[2.17452,41.34709],[2.17462,41.34717],[2.17457,41.34732],[2.17459,41.34744],[2.17465,41.34749],[2.17466,41.34763],[2.1747,41.34773],[2.17467,41.34785],[2.17476,41.34798],[2.17474,41.34811],[2.17482,41.34825],[2.17479,41.34831],[2.1749,41.34847],[2.17487,41.34854],[2.17486,41.34879],[2.17494,41.34889],[2.1749,41.34895],[2.17501,41.34923],[2.17502,41.34947],[2.17512,41.34974],[2.17521,41.34984]]]]},"properties":{"distrito":"d03","id":"d03"}},
{"type":"Feature","geometry":{"type":"MultiPolygon","coordinates":[[[[2.13642,41.39159],[2.13877,41.39124],[2.14232,41.39213],[2.14405,41.39257],[2.14418,41.39245],[2.14434,41.39238],[2.14458,41.39237],[2.14484,41.39246],[2.14494,41.39255],[2.145,41.39271],[2.14498,41.39286],[2.15471,41.39532],[2.15571,41.39557],[2.15526,41.39635],[2.15493,41.39678],[2.15123,41.40049],[2.15116,41.40073],[2.15117,41.4009],[2.15122,41.40105],[2.15121,41.40132],[2.15116,41.40149],[2.15107,41.40163],[2.1501,41.40288],[2.15001,41.40301],[2.14992,41.40327],[2.15003,41.40378],[2.15009,41.40388],[2.15025,41.40403],[2.15037,41.40425],[2.15036,41.40445],[2.15002,41.40531],[2.14997,41.40551],[2.15004,41.40578],[2.15007,41.40599],[2.14957,41.40648],[2.14945,41.40655],[2.14934,41.40662],[2.14903,41.40689],[2.14879,41.40673],[2.14897,41.40658],[2.14891,41.40655],[2.1488,41.40665],[2.1487,41.40663],[2.14852,41.40678],[2.14838,41.40681],[2.1485,41.40689],[2.14838,41.40699],[2.14866,41.40719],[2.14767,41.408],[2.14608,41.40997],[2.14596,41.41013],[2.1456,41.41083],[2.14526,41.41113],[2.145,41.41127],[2.14477,41.41134],[2.14447,41.41138],[2.14315,41.41149],[2.14096,41.41173],[2.1407,41.41184],[2.13796,41.41397],[2.13772,41.41411],[2.13722,41.41433],[2.13702,41.41446],[2.13615,41.41522],[2.13609,41.41535],[2.13606,41.41559],[2.1362,41.41587],[2.13631,41.41599],[2.13526,41.41693],[2.13432,41.41771],[2.13418,41.4178],[2.13368,41.41801],[2.13279,41.4183],[2.13258,41.4184],[2.13235,41.41855],[2.13218,41.41858],[2.13208,41.41856],[2.13183,41.41842],[2.1316,41.41832],[2.13124,41.41824],[2.13099,41.41824],[2.13067,41.41831],[2.13055,41.41828],[2.13022,41.41866],[2.13006,41.41911],[2.13013,41.41951],[2.13013,41.41961],[2.13,41.41966],[2.1297,41.41946],[2.12946,41.41945],[2.12932,41.41952],[2.12907,41.4196],[2.12903,41.41964],[2.12891,41.41987],[2.12885,41.41992],[2.12872,41.41993],[2.12848,41.41974],[2.12835,41.4197],[2.12813,41.41974],[2.12806,41.41973],[2.12785,41.4196],[2.12758,41.4195],[2.12745,41.41938],[2.12746,41.41925],[2.12802,41.41895],[2.12817,41.41876],[2.12817,41.41866],[2.12791,41.41842],[2.12791,41.41829],[2.12802,41.41819],[2.12837,41.41799],[2.12862,41.41781],[2.12892,41.41749],[2.12893,41.41742],[2.12878,41.41747],[2.12644,41.41851],[2.12532,41.41901],[2.12493,41.41915],[2.12473,41.41921],[2.12287,41.42],[2.12156,41.42056],[2.12116,41.42071],[2.12147,41.42084],[2.12153,41.42092],[2.12151,41.42112],[2.1214,41.42135],[2.12131,41.42146],[2.12098,41.42176],[2.12077,41.42205],[2.12043,41.42272],[2.12055,41.42311],[2.12045,41.42375],[2.12047,41.42394],[2.12052,41.42411],[2.12131,41.42539],[2.12136,41.42555],[2.12132,41.42568],[2.12121,41.42578],[2.12127,41.42583],[2.12119,41.42588],[2.12096,41.42594],[2.12083,41.42594],[2.11968,41.42576],[2.11941,41.42569],[2.11885,41.42585],[2.11848,41.42597],[2.11806,41.42614],[2.11775,41.42622],[2.11719,41.42631],[2.11677,41.42642],[2.11632,41.42666],[2.11563,41.42678],[2.11544,41.42711],[2.11542,41.42729],[2.11544,41.42751],[2.1153,41.42774],[2.11405,41.4282],[2.11356,41.4284],[2.11332,41.4285],[2.11301,41.42837],[2.11287,41.42838],[2.11246,41.42859],[2.11234,41.42861],[2.11216,41.42856],[2.11202,41.42842],[2.11186,41.42835],[2.11109,41.42828],[2.11094,41.42829],[2.11064,41.42836],[2.1103,41.42849],[2.10959,41.4284],[2.10927,41.42871],[2.10889,41.42875],[2.1084,41.42873],[2.10772,41.42864],[2.10718,41.42862],[2.10662,41.42864],[2.10634,41.4285],[2.1059,41.42857],[2.10575,41.4288],[2.10529,41.42879],[2.10468,41.42854],[2.10436,41.42844],[2.10412,41.42839],[2.10373,41.42815],[2.10365,41.42811],[2.10322,41.42807],[2.10298,41.42826],[2.10271,41.42843],[2.10251,41.42848],[2.10209,41.42865],[2.10184,41.42903],[2.10128,41.42958],[2.10114,41.4298],[2.10011,41.43007],[2.09969,41.43015],[2.09916,41.43014],[2.09907,41.43036],[2.09879,41.43075],[2.09871,41.43091],[2.09876,41.43094],[2.09892,41.43157],[2.09883,41.43171],[2.09851,41.43193],[2.09786,41.43216],[2.09772,41.43219],[2.09721,41.43245],[2.09678,41.43262],[2.0966,41.43285],[2.09628,41.43313],[2.09607,41.43327],[2.09573,41.43309],[2.09544,41.43285],[2.09497,41.4328],[2.09488,41.43276],[2.09471,41.43276],[2.09442,41.43252],[2.09425,41.43231],[2.09418,41.43218],[2.09406,41.4321],[2.09403,41.43199],[2.09394,41.43184],[2.09394,41.43172],[2.09375,41.43154],[2.09363,41.43131],[2.09334,41.43099],[2.09311,41.43085],[2.0929,41.43068],[2.09273,41.43033],[2.09253,41.43019],[2.09245,41.43006],[2.09243,41.42982],[2.09219,41.42957],[2.09202,41.42949],[2.09181,41.42949],[2.09166,41.42943],[2.09159,41.42936],[2.09133,41.42921],[2.09124,41.42921],[2.091,41.42912],[2.09099,41.42896],[2.09083,41.42881],[2.09043,41.42864],[2.0902,41.42879],[2.08995,41.429],[2.08921,41.42924],[2.089,41.42901],[2.08879,41.42861],[2.08866,41.42845],[2.08835,41.42823],[2.0882,41.4282],[2.08802,41.42825],[2.08789,41.42832],[2.08765,41.42862],[2.08729,41.42878],[2.08691,41.42884],[2.08616,41.42891],[2.08589,41.42899],[2.08573,41.429],[2.08558,41.42907],[2.08537,41.42932],[2.08409,41.42989],[2.08389,41.42997],[2.08371,41.43014],[2.08374,41.43029],[2.08401,41.43055],[2.08413,41.43075],[2.0839,41.43089],[2.08362,41.43092],[2.08336,41.43082],[2.08273,41.43076],[2.0826,41.4308],[2.08247,41.43107],[2.08246,41.43124],[2.08258,41.43147],[2.08274,41.43166],[2.08278,41.43175],[2.08274,41.4319],[2.08265,41.43199],[2.08253,41.43201],[2.08226,41.432],[2.08186,41.4319],[2.08158,41.43175],[2.08137,41.43151],[2.08118,41.43133],[2.0811,41.43116],[2.08121,41.43099],[2.08124,41.43072],[2.08101,41.43064],[2.08077,41.43064],[2.08038,41.43074],[2.08017,41.43086],[2.08014,41.43096],[2.08018,41.43115],[2.08024,41.43128],[2.08026,41.43155],[2.0802,41.43173],[2.07999,41.43188],[2.07962,41.43194],[2.07947,41.43192],[2.07899,41.43198],[2.07855,41.43197],[2.07807,41.43206],[2.07781,41.43213],[2.07729,41.43245],[2.07692,41.43275],[2.07676,41.43285],[2.07649,41.43286],[2.0762,41.43291],[2.07568,41.43294],[2.07533,41.43294],[2.07515,41.43305],[2.07509,41.4332],[2.07489,41.43335],[2.07485,41.43344],[2.07487,41.43357],[2.07507,41.43387],[2.07505,41.43405],[2.07514,41.4345],[2.07502,41.43481],[2.07477,41.4353],[2.07433,41.43535],[2.07395,41.43535],[2.07381,41.43529],[2.07313,41.43522],[2.073,41.43529],[2.07283,41.43544],[2.07264,41.43546],[2.07247,41.43551],[2.07277,41.43573],[2.07289,41.43589],[2.073,41.43609],[2.07311,41.43616],[2.07316,41.43625],[2.07328,41.43634],[2.07334,41.43645],[2.07303,41.43661],[2.07261,41.43655],[2.07178,41.43632],[2.07139,41.43567],[2.07118,41.4353],[2.07106,41.43505],[2.07098,41.43474],[2.07104,41.43433],[2.07123,41.43371],[2.07136,41.43335],[2.07153,41.43297],[2.07224,41.43204],[2.07285,41.43083],[2.07299,41.43074],[2.0736,41.43042],[2.07411,41.43021],[2.07433,41.43007],[2.07453,41.42989],[2.07507,41.42967],[2.07542,41.42958],[2.07554,41.42951],[2.07583,41.42923],[2.07592,41.42918],[2.07622,41.42907],[2.07648,41.4289],[2.07662,41.42871],[2.07546,41.42836],[2.07459,41.42811],[2.07382,41.42793],[2.07353,41.4278],[2.07322,41.42768],[2.07299,41.42752],[2.07321,41.42744],[2.07325,41.42734],[2.07314,41.42709],[2.07307,41.42675],[2.07298,41.42656],[2.07295,41.42632],[2.07291,41.42619],[2.07284,41.42612],[2.07261,41.42598],[2.07255,41.42578],[2.07264,41.42564],[2.07276,41.4255],[2.07279,41.42542],[2.07272,41.42504],[2.07295,41.42498],[2.07314,41.42495],[2.07368,41.42493],[2.0741,41.42482],[2.07439,41.42477],[2.0747,41.42482],[2.07513,41.42495],[2.07534,41.42496],[2.07575,41.42491],[2.07625,41.42497],[2.0765,41.42503],[2.07669,41.42504],[2.07724,41.42501],[2.07766,41.42492],[2.07829,41.42487],[2.07846,41.42484],[2.07871,41.42473],[2.07923,41.42455],[2.07944,41.42449],[2.07982,41.42445],[2.07998,41.42445],[2.08059,41.42438],[2.0805,41.42431],[2.0803,41.42424],[2.08037,41.42398],[2.08019,41.42367],[2.08018,41.42333],[2.08008,41.42308],[2.07956,41.42291],[2.07913,41.42273],[2.07892,41.4227],[2.07809,41.42254],[2.07792,41.42248],[2.07765,41.42249],[2.07745,41.42246],[2.07606,41.42231],[2.07544,41.42207],[2.07539,41.42202],[2.07541,41.42191],[2.07553,41.42186],[2.07589,41.42164],[2.07598,41.42153],[2.07614,41.42142],[2.07651,41.4213],[2.07699,41.42103],[2.07707,41.42092],[2.077,41.42072],[2.07695,41.42028],[2.077,41.41992],[2.07692,41.41983],[2.07683,41.41966],[2.0769,41.41945],[2.07711,41.41929],[2.0774,41.41913],[2.07756,41.41894],[2.07765,41.4186],[2.07799,41.41864],[2.07818,41.4187],[2.07847,41.41883],[2.07872,41.41886],[2.07864,41.41874],[2.07871,41.41858],[2.07875,41.41835],[2.07862,41.41818],[2.07862,41.41799],[2.07873,41.41774],[2.07899,41.41766],[2.07907,41.41757],[2.07917,41.41712],[2.07917,41.41697],[2.07924,41.41676],[2.07937,41.41652],[2.07959,41.41642],[2.07971,41.41632],[2.07969,41.41614],[2.07974,41.41592],[2.07975,41.41573],[2.07966,41.41566],[2.07947,41.41561],[2.07927,41.41535],[2.07898,41.41511],[2.07893,41.41495],[2.07859,41.41498],[2.07734,41.41463],[2.07731,41.41444],[2.07711,41.41435],[2.07707,41.41428],[2.07689,41.41414],[2.07683,41.41403],[2.0767,41.41393],[2.07656,41.41387],[2.0763,41.41355],[2.07628,41.41344],[2.07612,41.41314],[2.07597,41.41279],[2.07595,41.41268],[2.07581,41.41256],[2.07543,41.41234],[2.07473,41.41224],[2.07447,41.41217],[2.07425,41.41193],[2.07413,41.41188],[2.07395,41.41187],[2.07356,41.41188],[2.07344,41.41186],[2.07331,41.41178],[2.07306,41.41143],[2.07291,41.41135],[2.07263,41.41124],[2.0726,41.41118],[2.07239,41.41115],[2.07222,41.41107],[2.07214,41.41095],[2.07216,41.41083],[2.07208,41.41059],[2.07196,41.41043],[2.07187,41.41017],[2.07165,41.40968],[2.07158,41.40942],[2.07144,41.40919],[2.07136,41.40892],[2.07135,41.40876],[2.07144,41.40858],[2.07157,41.40844],[2.07183,41.40811],[2.07204,41.40773],[2.07206,41.40754],[2.07192,41.4074],[2.07152,41.40719],[2.07032,41.40723],[2.07,41.40703],[2.07019,41.40667],[2.07027,41.40644],[2.0705,41.40604],[2.07105,41.40528],[2.07147,41.40473],[2.07175,41.40438],[2.07206,41.40409],[2.07219,41.40346],[2.07279,41.40316],[2.07375,41.4033],[2.07489,41.40291],[2.07504,41.40299],[2.07533,41.4031],[2.07561,41.40318],[2.07585,41.40321],[2.07641,41.40319],[2.07696,41.40309],[2.07735,41.403],[2.07777,41.40287],[2.07807,41.40295],[2.07821,41.40301],[2.07859,41.40312],[2.07874,41.40322],[2.0789,41.4034],[2.07899,41.40356],[2.07923,41.40382],[2.07974,41.40417],[2.08006,41.40446],[2.0802,41.40475],[2.08031,41.40515],[2.08028,41.40539],[2.08028,41.40566],[2.08036,41.40587],[2.08042,41.40596],[2.08058,41.406],[2.08076,41.40613],[2.08091,41.40633],[2.08114,41.40647],[2.08183,41.40672],[2.08239,41.40704],[2.0825,41.40714],[2.0826,41.40732],[2.08264,41.40748],[2.08279,41.40776],[2.08305,41.4079],[2.08354,41.40828],[2.08364,41.40854],[2.0841,41.40889],[2.08419,41.40909],[2.08413,41.40935],[2.08457,41.4095],[2.08489,41.40958],[2.08521,41.40964],[2.08546,41.40971],[2.08569,41.40974],[2.086,41.40971],[2.08654,41.40958],[2.08689,41.40946],[2.08726,41.40912],[2.08759,41.40893],[2.08845,41.40867],[2.08867,41.40861],[2.0896,41.40844],[2.09032,41.40831],[2.0909,41.40832],[2.09107,41.4083],[2.09135,41.40824],[2.09173,41.40819],[2.09222,41.40827],[2.09251,41.40828],[2.09279,41.40825],[2.0931,41.40818],[2.09382,41.40805],[2.09423,41.40795],[2.09436,41.40793],[2.09501,41.40793],[2.09528,41.40791],[2.09565,41.40785],[2.09622,41.40797],[2.09666,41.40824],[2.09679,41.40857],[2.09695,41.4088],[2.09727,41.40908],[2.0976,41.40913],[2.09796,41.4091],[2.09816,41.40906],[2.099,41.40886],[2.09969,41.40861],[2.10028,41.40841],[2.10061,41.40837],[2.10073,41.40812],[2.10102,41.40766],[2.10131,41.40732],[2.10144,41.40722],[2.1016,41.407],[2.10171,41.40645],[2.1017,41.40608],[2.10177,41.40576],[2.10175,41.40544],[2.10179,41.40516],[2.10185,41.40509],[2.10224,41.40497],[2.10286,41.40482],[2.1032,41.40464],[2.10359,41.4044],[2.10371,41.40424],[2.10379,41.40402],[2.10384,41.40354],[2.10384,41.40339],[2.10378,41.40317],[2.10368,41.40297],[2.10359,41.40268],[2.10349,41.40251],[2.10322,41.40218],[2.10315,41.40205],[2.10313,41.4019],[2.10318,41.40165],[2.10307,41.40133],[2.10293,41.4011],[2.10312,41.40109],[2.10333,41.40111],[2.10352,41.40109],[2.10384,41.40101],[2.10441,41.40083],[2.10491,41.40068],[2.10536,41.40061],[2.10557,41.40049],[2.10625,41.40023],[2.10649,41.40013],[2.10677,41.39999],[2.10685,41.39992],[2.10707,41.3998],[2.10713,41.39974],[2.10726,41.39946],[2.10735,41.39937],[2.1075,41.3993],[2.10774,41.39923],[2.10819,41.39882],[2.10826,41.39868],[2.10833,41.39861],[2.10865,41.39845],[2.10875,41.39831],[2.10871,41.3982],[2.10897,41.39763],[2.10895,41.39755],[2.10905,41.39742],[2.10931,41.39722],[2.10935,41.39704],[2.10959,41.39677],[2.1097,41.39658],[2.10975,41.3963],[2.10966,41.39612],[2.1095,41.39591],[2.10954,41.39586],[2.10954,41.3957],[2.10962,41.39551],[2.10994,41.39517],[2.11091,41.39583],[2.11108,41.39589],[2.11164,41.39619],[2.11194,41.39636],[2.11219,41.39655],[2.11268,41.397],[2.11313,41.39726],[2.11485,41.39629],[2.11561,41.39587],[2.11596,41.39572],[2.11736,41.39536],[2.11763,41.39524],[2.1178,41.39513],[2.11801,41.39496],[2.11816,41.39478],[2.11829,41.39459],[2.11837,41.39441],[2.11844,41.39407],[2.11848,41.39376],[2.11843,41.39346],[2.11836,41.3932],[2.11818,41.39288],[2.11798,41.39259],[2.11776,41.39238],[2.11756,41.39222],[2.11801,41.39192],[2.11937,41.39157],[2.11984,41.39137],[2.12001,41.39128],[2.12034,41.39101],[2.12055,41.3908],[2.12073,41.39053],[2.1209,41.39009],[2.12227,41.39062],[2.12933,41.39238],[2.12959,41.39252],[2.12982,41.39264],[2.13008,41.39268],[2.13067,41.39247],[2.13642,41.39159]]],[[[2.05897,41.43542],[2.05881,41.43556],[2.05832,41.43566],[2.05811,41.43574],[2.05767,41.43581],[2.05773,41.4355],[2.05767,41.4353],[2.05765,41.43513],[2.05749,41.43468],[2.05748,41.43461],[2.05756,41.43441],[2.05789,41.43394],[2.05789,41.43381],[2.05764,41.43359],[2.0576,41.43345],[2.05771,41.43333],[2.05776,41.4332],[2.05779,41.4329],[2.05785,41.4326],[2.05842,41.4313],[2.0584,41.43118],[2.05844,41.4309],[2.05844,41.43043],[2.05839,41.42976],[2.05845,41.42959],[2.05845,41.42918],[2.05833,41.429],[2.05826,41.42877],[2.05799,41.42827],[2.05769,41.4279],[2.05758,41.42751],[2.05755,41.42713],[2.05768,41.4268],[2.05766,41.42642],[2.05747,41.42622],[2.05679,41.42581],[2.05643,41.4257],[2.05587,41.42548],[2.0553,41.42542],[2.05466,41.42528],[2.05326,41.42501],[2.05289,41.42482],[2.05243,41.42444],[2.05233,41.42423],[2.05248,41.42416],[2.05243,41.42392],[2.05247,41.42385],[2.05259,41.42379],[2.05306,41.4237],[2.05316,41.42366],[2.05372,41.42314],[2.05392,41.42287],[2.054,41.42285],[2.05416,41.42273],[2.05444,41.42272],[2.05455,41.42251],[2.05464,41.42241],[2.05497,41.42237],[2.05515,41.42231],[2.05551,41.42229],[2.05572,41.42212],[2.05578,41.42203],[2.05594,41.42191],[2.05604,41.42188],[2.05622,41.4217],[2.05638,41.42144],[2.05647,41.42136],[2.05649,41.4212],[2.05644,41.42096],[2.05638,41.42078],[2.05638,41.42048],[2.05652,41.42032],[2.05658,41.4202],[2.05658,41.42006],[2.05662,41.41994],[2.05663,41.41975],[2.05669,41.41954],[2.05684,41.41927],[2.05686,41.4191],[2.05711,41.41887],[2.05705,41.4188],[2.05712,41.41867],[2.05725,41.41852],[2.0573,41.41841],[2.05728,41.41829],[2.05717,41.41809],[2.05707,41.4178],[2.05703,41.4175],[2.05697,41.41726],[2.05695,41.41694],[2.0569,41.41685],[2.05689,41.41666],[2.05696,41.41656],[2.0569,41.416],[2.05623,41.41564],[2.05609,41.41531],[2.05594,41.41516],[2.05572,41.41501],[2.05523,41.41447],[2.05482,41.41416],[2.05464,41.41395],[2.05485,41.41341],[2.05494,41.41297],[2.05499,41.41218],[2.05685,41.41033],[2.05744,41.41033],[2.05877,41.41065],[2.059,41.41099],[2.05899,41.41154],[2.05907,41.41226],[2.05887,41.41246],[2.05847,41.41269],[2.05852,41.41274],[2.05958,41.4128],[2.06019,41.41268],[2.06078,41.41273],[2.06149,41.41295],[2.06156,41.41311],[2.06191,41.41339],[2.06196,41.41345],[2.06205,41.41366],[2.06263,41.4136],[2.06338,41.41357],[2.0635,41.41355],[2.06399,41.41416],[2.06416,41.41429],[2.06425,41.41452],[2.06438,41.41503],[2.06471,41.41559],[2.0649,41.41609],[2.06499,41.41663],[2.06471,41.41714],[2.06429,41.41784],[2.06458,41.41803],[2.06567,41.41813],[2.06678,41.41806],[2.06724,41.41808],[2.06757,41.41829],[2.06811,41.41846],[2.07003,41.41869],[2.07048,41.41881],[2.07045,41.41951],[2.07028,41.41952],[2.07021,41.42004],[2.07027,41.42027],[2.07017,41.42098],[2.06996,41.42134],[2.0698,41.42177],[2.06987,41.4227],[2.06954,41.42305],[2.0694,41.42335],[2.06967,41.42518],[2.06934,41.42527],[2.06766,41.42599],[2.06699,41.42629],[2.06699,41.42641],[2.06709,41.4267],[2.06709,41.42681],[2.06688,41.42708],[2.06678,41.42735],[2.06686,41.42742],[2.06686,41.4275],[2.06699,41.42775],[2.06725,41.42799],[2.06737,41.42812],[2.06745,41.42827],[2.06757,41.42858],[2.06769,41.42873],[2.06777,41.4291],[2.06777,41.42927],[2.0677,41.42939],[2.06779,41.42954],[2.0674,41.42954],[2.06665,41.42977],[2.06641,41.42981],[2.06597,41.43008],[2.06554,41.4299],[2.06458,41.42991],[2.06411,41.43046],[2.06366,41.43113],[2.06346,41.43207],[2.06331,41.43232],[2.06332,41.4329],[2.0631,41.43295],[2.06291,41.43358],[2.06212,41.43336],[2.06093,41.43368],[2.06002,41.43396],[2.05983,41.43412],[2.0595,41.43448],[2.05936,41.43479],[2.05932,41.43507],[2.05936,41.43539],[2.05912,41.43538],[2.05897,41.43542]]]]},"properties":{"distrito":"d05","id":"d05"}},
{"type":"Feature","geometry":{"type":"Polygon","coordinates":[[[2.13772,41.41411],[2.13796,41.41397],[2.1407,41.41184],[2.14096,41.41173],[2.14315,41.41149],[2.14447,41.41138],[2.14477,41.41134],[2.145,41.41127],[2.14526,41.41113],[2.1456,41.41083],[2.14596,41.41013],[2.14608,41.40997],[2.14767,41.408],[2.14866,41.40719],[2.14838,41.40699],[2.1485,41.40689],[2.14838,41.40681],[2.14852,41.40678],[2.1487,41.40663],[2.1488,41.40665],[2.14891,41.40655],[2.14897,41.40658],[2.14879,41.40673],[2.14903,41.40689],[2.14934,41.40662],[2.14945,41.40655],[2.14957,41.40648],[2.15007,41.40599],[2.15004,41.40578],[2.14997,41.40551],[2.15002,41.40531],[2.15036,41.40445],[2.15037,41.40425],[2.15025,41.40403],[2.15009,41.40388],[2.15003,41.40378],[2.14992,41.40327],[2.15001,41.40301],[2.1501,41.40288],[2.15107,41.40163],[2.15116,41.40149],[2.15121,41.40132],[2.15122,41.40105],[2.15117,41.4009],[2.15116,41.40073],[2.15123,41.40049],[2.15493,41.39678],[2.15526,41.39635],[2.15571,41.39557],[2.15923,41.39646],[2.16525,41.40098],[2.16622,41.40171],[2.16735,41.40086],[2.16978,41.40267],[2.17204,41.40437],[2.16866,41.40693],[2.16518,41.40959],[2.16394,41.41051],[2.16369,41.41072],[2.163,41.41149],[2.16202,41.41267],[2.16124,41.41357],[2.1614,41.41371],[2.16142,41.41385],[2.16138,41.41394],[2.16106,41.41418],[2.1605,41.41392],[2.16028,41.41393],[2.16013,41.41396],[2.15978,41.41411],[2.15947,41.41427],[2.15919,41.41445],[2.15895,41.41464],[2.15859,41.41496],[2.15835,41.41523],[2.15809,41.41558],[2.15788,41.4159],[2.15762,41.41646],[2.15742,41.41657],[2.15721,41.41651],[2.15714,41.41642],[2.15663,41.41562],[2.15599,41.41519],[2.15587,41.41514],[2.15565,41.4151],[2.15546,41.41512],[2.15537,41.41497],[2.15522,41.41492],[2.15503,41.41498],[2.15486,41.41512],[2.15466,41.41522],[2.15452,41.41535],[2.15416,41.4156],[2.15362,41.41607],[2.15318,41.41647],[2.15283,41.4167],[2.15272,41.41681],[2.15192,41.4169],[2.15184,41.41707],[2.15168,41.41721],[2.15142,41.41729],[2.15142,41.41738],[2.15104,41.41756],[2.1509,41.41768],[2.1509,41.41796],[2.15099,41.4182],[2.15115,41.4185],[2.15126,41.41858],[2.15152,41.41894],[2.15165,41.41934],[2.15168,41.41982],[2.15177,41.42014],[2.15174,41.42017],[2.15133,41.42018],[2.15096,41.42021],[2.1499,41.42033],[2.14927,41.42037],[2.14949,41.42061],[2.14949,41.42066],[2.14949,41.42138],[2.14947,41.42164],[2.1478,41.42159],[2.14698,41.42126],[2.14514,41.42089],[2.14482,41.42079],[2.14472,41.42073],[2.14453,41.42053],[2.14402,41.42019],[2.1439,41.42014],[2.14221,41.42145],[2.14199,41.42155],[2.14172,41.42153],[2.14081,41.42126],[2.14046,41.4211],[2.14004,41.42023],[2.1392,41.42047],[2.13788,41.42089],[2.13772,41.42099],[2.13768,41.42107],[2.1377,41.42123],[2.1378,41.42134],[2.13815,41.42147],[2.13835,41.4216],[2.13844,41.42177],[2.13841,41.422],[2.13808,41.42282],[2.1379,41.42307],[2.13759,41.42332],[2.13726,41.42346],[2.13699,41.42351],[2.13654,41.42355],[2.1364,41.42358],[2.13621,41.42368],[2.13614,41.42386],[2.13615,41.42426],[2.13607,41.42445],[2.13598,41.42454],[2.13581,41.42465],[2.13511,41.42488],[2.13505,41.42479],[2.1351,41.42462],[2.13533,41.42442],[2.13537,41.42431],[2.13525,41.42409],[2.13516,41.42397],[2.13485,41.42372],[2.13478,41.42358],[2.13465,41.42361],[2.13444,41.42332],[2.13429,41.42304],[2.13422,41.4228],[2.13422,41.42267],[2.13428,41.42258],[2.13444,41.42245],[2.13465,41.42232],[2.13478,41.42216],[2.13471,41.42213],[2.13444,41.42221],[2.13355,41.42234],[2.13321,41.42248],[2.13301,41.42255],[2.13281,41.42259],[2.13205,41.42254],[2.13163,41.42255],[2.13106,41.42267],[2.13081,41.4227],[2.13058,41.42275],[2.13035,41.42271],[2.12995,41.42257],[2.13048,41.42196],[2.13069,41.4218],[2.13091,41.42156],[2.13125,41.42135],[2.13126,41.42113],[2.13134,41.421],[2.13167,41.42067],[2.13184,41.42043],[2.13215,41.42008],[2.13221,41.41997],[2.1321,41.41982],[2.1315,41.41959],[2.13124,41.41945],[2.13109,41.41939],[2.1309,41.41943],[2.13078,41.41957],[2.13065,41.41985],[2.13047,41.41997],[2.13014,41.42007],[2.13002,41.42006],[2.12988,41.41996],[2.12982,41.41977],[2.12974,41.41964],[2.12959,41.41954],[2.12932,41.41952],[2.12946,41.41945],[2.1297,41.41946],[2.13,41.41966],[2.13013,41.41961],[2.13013,41.41951],[2.13006,41.41911],[2.13022,41.41866],[2.13055,41.41828],[2.13067,41.41831],[2.13099,41.41824],[2.13124,41.41824],[2.1316,41.41832],[2.13183,41.41842],[2.13208,41.41856],[2.13218,41.41858],[2.13235,41.41855],[2.13258,41.4184],[2.13279,41.4183],[2.13368,41.41801],[2.13418,41.4178],[2.13432,41.41771],[2.13526,41.41693],[2.13631,41.41599],[2.1362,41.41587],[2.13606,41.41559],[2.13609,41.41535],[2.13615,41.41522],[2.13702,41.41446],[2.13722,41.41433],[2.13772,41.41411]]]},"properties":{"distrito":"d06","id":"d06"}},
{"type":"Feature","geometry":{"type":"Polygon","coordinates":[[[2.17433,41.41118],[2.17547,41.41204],[2.18048,41.41583],[2.1804,41.41637],[2.18039,41.41748],[2.18049,41.41833],[2.18073,41.41938],[2.18083,41.41984],[2.18083,41.42003],[2.18075,41.42035],[2.18047,41.42071],[2.17653,41.42499],[2.17622,41.42533],[2.17606,41.42545],[2.17579,41.42558],[2.17235,41.42652],[2.16998,41.42718],[2.16971,41.42723],[2.16743,41.42755],[2.16516,41.42778],[2.16402,41.42795],[2.1638,41.42801],[2.16363,41.4281],[2.16378,41.42821],[2.16497,41.42896],[2.16615,41.42963],[2.16484,41.4304],[2.16431,41.43077],[2.16409,41.43098],[2.16364,41.43139],[2.16341,41.4317],[2.16323,41.43198],[2.16311,41.43246],[2.16311,41.43288],[2.16348,41.43419],[2.16358,41.43456],[2.1638,41.4352],[2.16426,41.43629],[2.16333,41.43654],[2.16317,41.43659],[2.16352,41.4371],[2.16321,41.43728],[2.16313,41.43736],[2.16366,41.43786],[2.16256,41.43851],[2.16228,41.43871],[2.16195,41.43903],[2.16184,41.43918],[2.16166,41.43929],[2.1618,41.43966],[2.16167,41.43978],[2.16156,41.43995],[2.16153,41.44014],[2.16155,41.44027],[2.16165,41.44046],[2.16176,41.44058],[2.16196,41.4407],[2.16221,41.44078],[2.16237,41.44079],[2.16244,41.44102],[2.1624,41.44133],[2.16171,41.44163],[2.16164,41.44156],[2.16043,41.4421],[2.16013,41.4422],[2.15997,41.44238],[2.15982,41.44228],[2.1597,41.44212],[2.15944,41.44223],[2.15919,41.44238],[2.15905,41.44252],[2.15893,41.44271],[2.1587,41.44301],[2.15861,41.44326],[2.15849,41.44348],[2.15847,41.44369],[2.15841,41.44386],[2.15829,41.444],[2.15799,41.4442],[2.15795,41.44453],[2.15784,41.44471],[2.15771,41.44483],[2.15747,41.44502],[2.15699,41.44511],[2.15672,41.44529],[2.15648,41.44541],[2.1561,41.44554],[2.15578,41.44556],[2.15571,41.44569],[2.1559,41.44578],[2.15621,41.44579],[2.15708,41.44596],[2.15725,41.44605],[2.15742,41.44637],[2.15759,41.44661],[2.15759,41.44671],[2.15752,41.44702],[2.15742,41.44713],[2.15712,41.44728],[2.15704,41.44743],[2.15721,41.44746],[2.15749,41.44747],[2.15768,41.44755],[2.15794,41.44771],[2.15834,41.44808],[2.15875,41.44853],[2.15892,41.4488],[2.15901,41.44889],[2.15928,41.44927],[2.15942,41.44939],[2.15942,41.4496],[2.15949,41.44977],[2.15948,41.44996],[2.15937,41.45019],[2.15921,41.45032],[2.15911,41.45052],[2.15897,41.45052],[2.15878,41.45035],[2.15842,41.45017],[2.15801,41.44983],[2.15756,41.44962],[2.15732,41.4496],[2.15681,41.44979],[2.15658,41.44991],[2.15631,41.44992],[2.15602,41.44995],[2.15584,41.44993],[2.15547,41.44979],[2.15517,41.44963],[2.15475,41.44953],[2.15438,41.44939],[2.15428,41.4493],[2.15354,41.44879],[2.15343,41.44865],[2.15334,41.44822],[2.1533,41.44785],[2.15327,41.44779],[2.15285,41.44766],[2.15276,41.44761],[2.15207,41.44706],[2.15191,41.44702],[2.15172,41.44704],[2.1513,41.44714],[2.15104,41.44723],[2.15075,41.4473],[2.15058,41.44728],[2.15028,41.4472],[2.15,41.44718],[2.14965,41.44723],[2.14953,41.44722],[2.14929,41.4471],[2.14906,41.44695],[2.14864,41.44679],[2.14842,41.44676],[2.14805,41.44685],[2.14781,41.44687],[2.14758,41.44695],[2.14725,41.44711],[2.14709,41.44722],[2.14671,41.44751],[2.14661,41.44755],[2.14633,41.44763],[2.14592,41.44768],[2.14543,41.44778],[2.1451,41.44795],[2.14504,41.44796],[2.1446,41.44782],[2.14428,41.44777],[2.14399,41.44777],[2.14351,41.44762],[2.14303,41.44745],[2.14257,41.44714],[2.14244,41.44703],[2.14227,41.44696],[2.14185,41.44693],[2.14165,41.44699],[2.14147,41.44708],[2.14135,41.4472],[2.14123,41.44721],[2.14102,41.44736],[2.14084,41.44744],[2.14058,41.44748],[2.14028,41.44749],[2.14009,41.44752],[2.13989,41.44761],[2.13904,41.44771],[2.13867,41.44776],[2.1383,41.44785],[2.13815,41.44791],[2.13781,41.44796],[2.13759,41.44789],[2.1374,41.44777],[2.13711,41.44762],[2.13663,41.44774],[2.13634,41.44761],[2.13574,41.44743],[2.13502,41.44758],[2.13482,41.44759],[2.13473,41.44756],[2.13463,41.44741],[2.13458,41.44709],[2.13425,41.44662],[2.13407,41.44639],[2.13384,41.44604],[2.13361,41.4458],[2.1334,41.44565],[2.13293,41.44546],[2.13288,41.44519],[2.13291,41.44494],[2.13285,41.44473],[2.13274,41.44457],[2.13254,41.44446],[2.13229,41.44425],[2.13202,41.44415],[2.13136,41.444],[2.13109,41.44392],[2.13085,41.44388],[2.13072,41.44383],[2.13056,41.44356],[2.13011,41.44318],[2.12994,41.44303],[2.12997,41.44266],[2.12994,41.44247],[2.1298,41.44235],[2.12965,41.4421],[2.1295,41.44191],[2.1295,41.44175],[2.12964,41.44154],[2.12992,41.44117],[2.12996,41.44095],[2.12993,41.44067],[2.12985,41.44054],[2.12945,41.44023],[2.12933,41.44003],[2.12931,41.4399],[2.1294,41.43962],[2.12936,41.43938],[2.12941,41.43929],[2.12948,41.43873],[2.1293,41.438],[2.12929,41.43782],[2.1292,41.4376],[2.12865,41.43692],[2.12861,41.43679],[2.1286,41.4366],[2.12877,41.43629],[2.12883,41.43597],[2.12879,41.43575],[2.12872,41.4356],[2.1288,41.43509],[2.12876,41.43497],[2.12849,41.43439],[2.1281,41.43376],[2.12827,41.43351],[2.12815,41.43348],[2.1277,41.43327],[2.12752,41.43313],[2.12735,41.43284],[2.12727,41.43263],[2.12672,41.43207],[2.12645,41.43171],[2.12663,41.4316],[2.12649,41.4315],[2.12399,41.42944],[2.12385,41.4293],[2.12368,41.42909],[2.12279,41.42839],[2.12243,41.42781],[2.12233,41.42739],[2.1223,41.427],[2.1221,41.42661],[2.12194,41.42647],[2.12127,41.42583],[2.12121,41.42578],[2.12132,41.42568],[2.12136,41.42555],[2.12131,41.42539],[2.12052,41.42411],[2.12047,41.42394],[2.12045,41.42375],[2.12055,41.42311],[2.12043,41.42272],[2.12077,41.42205],[2.12098,41.42176],[2.12131,41.42146],[2.1214,41.42135],[2.12151,41.42112],[2.12153,41.42092],[2.12147,41.42084],[2.12116,41.42071],[2.12156,41.42056],[2.12287,41.42],[2.12473,41.41921],[2.12493,41.41915],[2.12532,41.41901],[2.12644,41.41851],[2.12878,41.41747],[2.12893,41.41742],[2.12892,41.41749],[2.12862,41.41781],[2.12837,41.41799],[2.12802,41.41819],[2.12791,41.41829],[2.12791,41.41842],[2.12817,41.41866],[2.12817,41.41876],[2.12802,41.41895],[2.12746,41.41925],[2.12745,41.41938],[2.12758,41.4195],[2.12785,41.4196],[2.12806,41.41973],[2.12813,41.41974],[2.12835,41.4197],[2.12848,41.41974],[2.12872,41.41993],[2.12885,41.41992],[2.12891,41.41987],[2.12903,41.41964],[2.12907,41.4196],[2.12932,41.41952],[2.12959,41.41954],[2.12974,41.41964],[2.12982,41.41977],[2.12988,41.41996],[2.13002,41.42006],[2.13014,41.42007],[2.13047,41.41997],[2.13065,41.41985],[2.13078,41.41957],[2.1309,41.41943],[2.13109,41.41939],[2.13124,41.41945],[2.1315,41.41959],[2.1321,41.41982],[2.13221,41.41997],[2.13215,41.42008],[2.13184,41.42043],[2.13167,41.42067],[2.13134,41.421],[2.13126,41.42113],[2.13125,41.42135],[2.13091,41.42156],[2.13069,41.4218],[2.13048,41.42196],[2.12995,41.42257],[2.13035,41.42271],[2.13058,41.42275],[2.13081,41.4227],[2.13106,41.42267],[2.13163,41.42255],[2.13205,41.42254],[2.13281,41.42259],[2.13301,41.42255],[2.13321,41.42248],[2.13355,41.42234],[2.13444,41.42221],[2.13471,41.42213],[2.13478,41.42216],[2.13465,41.42232],[2.13444,41.42245],[2.13428,41.42258],[2.13422,41.42267],[2.13422,41.4228],[2.13429,41.42304],[2.13444,41.42332],[2.13465,41.42361],[2.13478,41.42358],[2.13485,41.42372],[2.13516,41.42397],[2.13525,41.42409],[2.13537,41.42431],[2.13533,41.42442],[2.1351,41.42462],[2.13505,41.42479],[2.13511,41.42488],[2.13581,41.42465],[2.13598,41.42454],[2.13607,41.42445],[2.13615,41.42426],[2.13614,41.42386],[2.13621,41.42368],[2.1364,41.42358],[2.13654,41.42355],[2.13699,41.42351],[2.13726,41.42346],[2.13759,41.42332],[2.1379,41.42307],[2.13808,41.42282],[2.13841,41.422],[2.13844,41.42177],[2.13835,41.4216],[2.13815,41.42147],[2.1378,41.42134],[2.1377,41.42123],[2.13768,41.42107],[2.13772,41.42099],[2.13788,41.42089],[2.1392,41.42047],[2.14004,41.42023],[2.14046,41.4211],[2.14081,41.42126],[2.14172,41.42153],[2.14199,41.42155],[2.14221,41.42145],[2.1439,41.42014],[2.14402,41.42019],[2.14453,41.42053],[2.14472,41.42073],[2.14482,41.42079],[2.14514,41.42089],[2.14698,41.42126],[2.1478,41.42159],[2.14947,41.42164],[2.14949,41.42138],[2.14949,41.42066],[2.14949,41.42061],[2.14927,41.42037],[2.1499,41.42033],[2.15096,41.42021],[2.15133,41.42018],[2.15174,41.42017],[2.15177,41.42014],[2.15168,41.41982],[2.15165,41.41934],[2.15152,41.41894],[2.15126,41.41858],[2.15115,41.4185],[2.15099,41.4182],[2.1509,41.41796],[2.1509,41.41768],[2.15104,41.41756],[2.15142,41.41738],[2.15142,41.41729],[2.15168,41.41721],[2.15184,41.41707],[2.15192,41.4169],[2.15272,41.41681],[2.15283,41.4167],[2.15318,41.41647],[2.15362,41.41607],[2.15416,41.4156],[2.15452,41.41535],[2.15466,41.41522],[2.15486,41.41512],[2.15503,41.41498],[2.15522,41.41492],[2.15537,41.41497],[2.15546,41.41512],[2.15565,41.4151],[2.15587,41.41514],[2.15599,41.41519],[2.15663,41.41562],[2.15714,41.41642],[2.15721,41.41651],[2.15742,41.41657],[2.15762,41.41646],[2.15788,41.4159],[2.15809,41.41558],[2.15835,41.41523],[2.15859,41.41496],[2.15895,41.41464],[2.15919,41.41445],[2.15947,41.41427],[2.15978,41.41411],[2.16013,41.41396],[2.16028,41.41393],[2.1605,41.41392],[2.16106,41.41418],[2.16138,41.41394],[2.16142,41.41385],[2.1614,41.41371],[2.16124,41.41357],[2.16202,41.41267],[2.163,41.41149],[2.16369,41.41072],[2.16394,41.41051],[2.16518,41.40959],[2.16866,41.40693],[2.17433,41.41118]]]},"properties":{"distrito":"d07","id":"d07"}},
{"type":"Feature","geometry":{"type":"Polygon","coordinates":[[[2.17606,41.42545],[2.1773,41.42549],[2.17722,41.42734],[2.17729,41.42817],[2.17944,41.42784],[2.1843,41.42764],[2.18437,41.42835],[2.18417,41.42865],[2.18374,41.42929],[2.18306,41.43019],[2.18288,41.43044],[2.18279,41.43064],[2.18267,41.4312],[2.18275,41.43175],[2.18543,41.4397],[2.18549,41.4399],[2.18645,41.44317],[2.18771,41.44696],[2.18834,41.44886],[2.18871,41.45011],[2.1888,41.45069],[2.18888,41.45204],[2.18891,41.45325],[2.18882,41.45419],[2.18878,41.45484],[2.18868,41.45526],[2.18856,41.45565],[2.18812,41.45663],[2.18789,41.45691],[2.18841,41.4571],[2.18879,41.4573],[2.18842,41.45777],[2.18807,41.45832],[2.18802,41.45841],[2.18774,41.45915],[2.18764,41.45964],[2.18759,41.46009],[2.1874,41.46208],[2.18764,41.46212],[2.18745,41.4638],[2.18718,41.46629],[2.18706,41.46772],[2.1858,41.46776],[2.18538,41.4678],[2.18458,41.4682],[2.18442,41.46825],[2.18407,41.4683],[2.18379,41.4683],[2.18347,41.46823],[2.1831,41.46816],[2.18267,41.46805],[2.18239,41.468],[2.18202,41.46795],[2.18169,41.46784],[2.18069,41.46767],[2.17941,41.46759],[2.17869,41.46818],[2.17864,41.46795],[2.17861,41.46769],[2.17861,41.46742],[2.17867,41.46708],[2.17879,41.4668],[2.17894,41.46653],[2.17917,41.46621],[2.17947,41.46588],[2.17984,41.46551],[2.18014,41.46527],[2.18042,41.46509],[2.18071,41.46494],[2.17912,41.46455],[2.17813,41.46433],[2.17746,41.46416],[2.17696,41.46413],[2.17692,41.46409],[2.17625,41.46399],[2.17621,41.46394],[2.17573,41.46373],[2.17492,41.46385],[2.17488,41.4637],[2.17452,41.46348],[2.17435,41.46348],[2.17433,41.46323],[2.17435,41.46297],[2.17425,41.46273],[2.17407,41.46256],[2.17376,41.46254],[2.17294,41.46206],[2.17265,41.46187],[2.17255,41.46177],[2.17239,41.46166],[2.17213,41.46144],[2.1719,41.46127],[2.17175,41.46121],[2.17165,41.46111],[2.17141,41.46082],[2.17122,41.46121],[2.17064,41.46102],[2.1705,41.46096],[2.17002,41.46084],[2.17001,41.46075],[2.16929,41.46063],[2.1691,41.46055],[2.16832,41.46028],[2.16828,41.4604],[2.16826,41.4607],[2.16814,41.4607],[2.16733,41.46068],[2.16724,41.46047],[2.16729,41.46032],[2.1674,41.46008],[2.16752,41.45993],[2.16731,41.45989],[2.16717,41.4598],[2.16701,41.45964],[2.16693,41.45949],[2.16692,41.45917],[2.16682,41.45908],[2.16644,41.45871],[2.16616,41.45847],[2.1658,41.45842],[2.1657,41.45831],[2.16562,41.45803],[2.1655,41.45792],[2.16542,41.45778],[2.16532,41.45769],[2.16508,41.45733],[2.16497,41.45715],[2.16464,41.4567],[2.16434,41.45619],[2.16423,41.45604],[2.16417,41.45579],[2.16427,41.45561],[2.16433,41.45536],[2.16441,41.45512],[2.16451,41.45501],[2.16473,41.45494],[2.16489,41.45484],[2.16492,41.45477],[2.16496,41.45433],[2.16489,41.45405],[2.16482,41.45393],[2.1648,41.45377],[2.16486,41.45347],[2.1649,41.45316],[2.16486,41.45291],[2.1648,41.45268],[2.16494,41.45252],[2.16533,41.45225],[2.16557,41.4518],[2.1656,41.45158],[2.16551,41.45144],[2.16531,41.45131],[2.16508,41.45122],[2.16479,41.45109],[2.16464,41.45085],[2.16445,41.45069],[2.16436,41.45057],[2.16429,41.45039],[2.16414,41.44982],[2.16407,41.44979],[2.16389,41.44977],[2.16347,41.4498],[2.16298,41.44977],[2.16269,41.44983],[2.16239,41.44999],[2.16211,41.45016],[2.16186,41.45026],[2.16104,41.45033],[2.16041,41.45034],[2.16021,41.45033],[2.16,41.45043],[2.15956,41.4505],[2.15956,41.45052],[2.15911,41.45052],[2.15921,41.45032],[2.15937,41.45019],[2.15948,41.44996],[2.15949,41.44977],[2.15942,41.4496],[2.15942,41.44939],[2.15928,41.44927],[2.15901,41.44889],[2.15892,41.4488],[2.15875,41.44853],[2.15834,41.44808],[2.15794,41.44771],[2.15768,41.44755],[2.15749,41.44747],[2.15721,41.44746],[2.15704,41.44743],[2.15712,41.44728],[2.15742,41.44713],[2.15752,41.44702],[2.15759,41.44671],[2.15759,41.44661],[2.15742,41.44637],[2.15725,41.44605],[2.15708,41.44596],[2.15621,41.44579],[2.1559,41.44578],[2.15571,41.44569],[2.15578,41.44556],[2.1561,41.44554],[2.15648,41.44541],[2.15672,41.44529],[2.15699,41.44511],[2.15747,41.44502],[2.15771,41.44483],[2.15784,41.44471],[2.15795,41.44453],[2.15799,41.4442],[2.15829,41.444],[2.15841,41.44386],[2.15847,41.44369],[2.15849,41.44348],[2.15861,41.44326],[2.1587,41.44301],[2.15893,41.44271],[2.15905,41.44252],[2.15919,41.44238],[2.15944,41.44223],[2.1597,41.44212],[2.15982,41.44228],[2.15997,41.44238],[2.16013,41.4422],[2.16043,41.4421],[2.16164,41.44156],[2.16171,41.44163],[2.1624,41.44133],[2.16244,41.44102],[2.16237,41.44079],[2.16221,41.44078],[2.16196,41.4407],[2.16176,41.44058],[2.16165,41.44046],[2.16155,41.44027],[2.16153,41.44014],[2.16156,41.43995],[2.16167,41.43978],[2.1618,41.43966],[2.16166,41.43929],[2.16184,41.43918],[2.16195,41.43903],[2.16228,41.43871],[2.16256,41.43851],[2.16366,41.43786],[2.16313,41.43736],[2.16321,41.43728],[2.16352,41.4371],[2.16317,41.43659],[2.16333,41.43654],[2.16426,41.43629],[2.1638,41.4352],[2.16358,41.43456],[2.16348,41.43419],[2.16311,41.43288],[2.16311,41.43246],[2.16323,41.43198],[2.16341,41.4317],[2.16364,41.43139],[2.16409,41.43098],[2.16431,41.43077],[2.16484,41.4304],[2.16615,41.42963],[2.16497,41.42896],[2.16378,41.42821],[2.16363,41.4281],[2.1638,41.42801],[2.16402,41.42795],[2.16516,41.42778],[2.16743,41.42755],[2.16971,41.42723],[2.16998,41.42718],[2.17235,41.42652],[2.17579,41.42558],[2.17606,41.42545]]]},"properties":{"distrito":"d08","id":"d08"}},
{"type":"Feature","geometry":{"type":"Polygon","coordinates":[[[2.14434,41.39238],[2.14418,41.39245],[2.14405,41.39257],[2.14232,41.39213],[2.13877,41.39124],[2.13642,41.39159],[2.13067,41.39247],[2.13008,41.39268],[2.12982,41.39264],[2.12959,41.39252],[2.12933,41.39238],[2.12227,41.39062],[2.1209,41.39009],[2.12073,41.39053],[2.12055,41.3908],[2.12034,41.39101],[2.12001,41.39128],[2.11984,41.39137],[2.11937,41.39157],[2.11801,41.39192],[2.11756,41.39222],[2.11776,41.39238],[2.11798,41.39259],[2.11818,41.39288],[2.11836,41.3932],[2.11843,41.39346],[2.11848,41.39376],[2.11844,41.39407],[2.11837,41.39441],[2.11829,41.39459],[2.11816,41.39478],[2.11801,41.39496],[2.1178,41.39513],[2.11763,41.39524],[2.11736,41.39536],[2.11596,41.39572],[2.11561,41.39587],[2.11485,41.39629],[2.11313,41.39726],[2.11268,41.397],[2.11219,41.39655],[2.11194,41.39636],[2.11164,41.39619],[2.11108,41.39589],[2.11091,41.39583],[2.10994,41.39517],[2.10962,41.39551],[2.10954,41.3957],[2.10954,41.39586],[2.1095,41.39591],[2.10966,41.39612],[2.10975,41.3963],[2.1097,41.39658],[2.10959,41.39677],[2.10935,41.39704],[2.10931,41.39722],[2.10905,41.39742],[2.10895,41.39755],[2.10897,41.39763],[2.10871,41.3982],[2.10875,41.39831],[2.10865,41.39845],[2.10833,41.39861],[2.10826,41.39868],[2.10819,41.39882],[2.10774,41.39923],[2.1075,41.3993],[2.10735,41.39937],[2.10726,41.39946],[2.10713,41.39974],[2.10707,41.3998],[2.10685,41.39992],[2.10677,41.39999],[2.10649,41.40013],[2.10625,41.40023],[2.10557,41.40049],[2.10536,41.40061],[2.10491,41.40068],[2.10441,41.40083],[2.10384,41.40101],[2.10352,41.40109],[2.10333,41.40111],[2.10312,41.40109],[2.10293,41.4011],[2.10289,41.40098],[2.10289,41.40067],[2.10283,41.40052],[2.10267,41.40032],[2.10222,41.39983],[2.10204,41.3995],[2.10168,41.39915],[2.10148,41.39903],[2.10116,41.39887],[2.10058,41.39861],[2.10046,41.39851],[2.10048,41.39827],[2.10044,41.398],[2.10032,41.39779],[2.10015,41.39756],[2.10001,41.39697],[2.09993,41.39681],[2.09976,41.39661],[2.09939,41.39627],[2.09926,41.39607],[2.09912,41.39577],[2.09902,41.39541],[2.09887,41.39526],[2.09851,41.39498],[2.09833,41.39461],[2.09809,41.39425],[2.09779,41.39396],[2.09804,41.3936],[2.09805,41.39343],[2.09848,41.39316],[2.0989,41.39297],[2.09913,41.39281],[2.09923,41.3927],[2.09938,41.39246],[2.09971,41.39211],[2.0998,41.392],[2.0998,41.39182],[2.09978,41.39146],[2.09982,41.39098],[2.09986,41.39079],[2.10002,41.39014],[2.10017,41.3899],[2.10025,41.38969],[2.1002,41.38938],[2.10026,41.3891],[2.10031,41.38895],[2.10059,41.38841],[2.1007,41.38826],[2.10117,41.38801],[2.10159,41.38779],[2.10188,41.38765],[2.10229,41.38752],[2.10201,41.38735],[2.1016,41.38725],[2.10125,41.38715],[2.10111,41.38708],[2.10135,41.38685],[2.10154,41.38673],[2.10158,41.38664],[2.10181,41.38649],[2.10203,41.38625],[2.10226,41.38612],[2.10239,41.38595],[2.10249,41.38589],[2.10261,41.38575],[2.10269,41.38555],[2.10289,41.38549],[2.10338,41.38458],[2.10335,41.38452],[2.10343,41.38437],[2.10313,41.38399],[2.10293,41.38378],[2.10263,41.38357],[2.10225,41.38342],[2.10159,41.38329],[2.10118,41.38318],[2.10171,41.38183],[2.10193,41.38134],[2.10254,41.38069],[2.10266,41.3806],[2.10318,41.38028],[2.10339,41.38025],[2.10365,41.38017],[2.10386,41.38007],[2.10404,41.37994],[2.1055,41.37888],[2.10598,41.37923],[2.10814,41.37814],[2.10839,41.37782],[2.10882,41.37739],[2.10899,41.37717],[2.10918,41.3768],[2.10929,41.37643],[2.10932,41.37615],[2.10931,41.37594],[2.1178,41.37578],[2.12106,41.37771],[2.12144,41.37799],[2.12158,41.37757],[2.12165,41.37726],[2.12162,41.37611],[2.12166,41.37597],[2.12179,41.37569],[2.1227,41.37567],[2.12505,41.37708],[2.12758,41.37856],[2.12915,41.37939],[2.13084,41.38027],[2.13167,41.3806],[2.13481,41.38153],[2.13761,41.38257],[2.13906,41.38322],[2.14071,41.38417],[2.14264,41.38562],[2.14275,41.3866],[2.14294,41.38768],[2.14353,41.39004],[2.14365,41.3905],[2.1438,41.39103],[2.14396,41.39147],[2.14434,41.39238]]]},"properties":{"distrito":"d04","id":"d04"}},
{"type":"Feature","geometry":{"type":"Polygon","coordinates":[[[2.18764,41.46212],[2.1874,41.46208],[2.18759,41.46009],[2.18764,41.45964],[2.18774,41.45915],[2.18802,41.45841],[2.18807,41.45832],[2.18842,41.45777],[2.18879,41.4573],[2.18841,41.4571],[2.18789,41.45691],[2.18812,41.45663],[2.18856,41.45565],[2.18868,41.45526],[2.18878,41.45484],[2.18882,41.45419],[2.18891,41.45325],[2.18888,41.45204],[2.1888,41.45069],[2.18871,41.45011],[2.18834,41.44886],[2.18771,41.44696],[2.18645,41.44317],[2.18549,41.4399],[2.18543,41.4397],[2.18275,41.43175],[2.18267,41.4312],[2.18279,41.43064],[2.18288,41.43044],[2.18306,41.43019],[2.18374,41.42929],[2.18417,41.42865],[2.18437,41.42835],[2.1843,41.42764],[2.17944,41.42784],[2.17729,41.42817],[2.17722,41.42734],[2.1773,41.42549],[2.17606,41.42545],[2.17622,41.42533],[2.17653,41.42499],[2.18047,41.42071],[2.18075,41.42035],[2.18083,41.42003],[2.18083,41.41984],[2.18073,41.41938],[2.18049,41.41833],[2.18039,41.41748],[2.1804,41.41637],[2.18048,41.41583],[2.18336,41.41795],[2.1869,41.41529],[2.188,41.41446],[2.18903,41.41368],[2.19015,41.41454],[2.19098,41.41517],[2.19111,41.41554],[2.19241,41.41455],[2.19354,41.4154],[2.19333,41.41593],[2.19323,41.41632],[2.19325,41.41664],[2.19329,41.4168],[2.19349,41.41734],[2.19403,41.41882],[2.19522,41.42239],[2.19549,41.42234],[2.1956,41.42268],[2.19589,41.42442],[2.19604,41.4249],[2.19645,41.42633],[2.19655,41.42659],[2.19643,41.42666],[2.19662,41.42728],[2.19696,41.42797],[2.19721,41.42875],[2.19732,41.42894],[2.19757,41.42921],[2.19811,41.42963],[2.1984,41.42982],[2.19869,41.42994],[2.19894,41.43003],[2.19917,41.43008],[2.1999,41.43016],[2.20023,41.43018],[2.20069,41.43016],[2.2011,41.43009],[2.20153,41.42999],[2.20195,41.42986],[2.20298,41.42948],[2.20702,41.42758],[2.20735,41.42798],[2.20728,41.42801],[2.20734,41.42812],[2.20729,41.42844],[2.20728,41.42879],[2.20714,41.42885],[2.20732,41.42907],[2.20725,41.4291],[2.20692,41.42991],[2.20701,41.43001],[2.20654,41.43024],[2.2068,41.43054],[2.20667,41.43058],[2.20648,41.43108],[2.20617,41.43227],[2.20647,41.43264],[2.20726,41.4329],[2.20802,41.43312],[2.20841,41.43318],[2.20855,41.43316],[2.20955,41.43324],[2.21076,41.43343],[2.2103,41.43425],[2.20998,41.43491],[2.2098,41.43531],[2.20963,41.43576],[2.20941,41.43639],[2.2084,41.44],[2.20823,41.44052],[2.20799,41.4411],[2.20766,41.44177],[2.20732,41.44237],[2.20694,41.44296],[2.20683,41.44312],[2.2063,41.44381],[2.20588,41.44428],[2.20332,41.44699],[2.20321,41.4471],[2.20194,41.44839],[2.20132,41.44901],[2.20018,41.45014],[2.19957,41.45072],[2.19918,41.45107],[2.19811,41.45198],[2.19771,41.45228],[2.19699,41.45279],[2.19528,41.45399],[2.19451,41.45454],[2.19171,41.45655],[2.19131,41.45685],[2.19096,41.45714],[2.19062,41.45743],[2.18979,41.45822],[2.18937,41.45864],[2.18901,41.45904],[2.18883,41.45927],[2.18861,41.45958],[2.18846,41.45982],[2.1882,41.46029],[2.18796,41.46083],[2.1878,41.46131],[2.18768,41.4618],[2.18764,41.46212]]]},"properties":{"distrito":"d09","id":"d09"}},
{"type":"Feature","geometry":{"type":"Polygon","coordinates":[[[2.18338,41.40604],[2.18567,41.40431],[2.18453,41.40345],[2.18518,41.40296],[2.1869,41.40166],[2.18687,41.39497],[2.18674,41.39492],[2.18666,41.39476],[2.18673,41.39464],[2.18238,41.39142],[2.18459,41.38976],[2.18677,41.39139],[2.1879,41.39054],[2.18874,41.3899],[2.19149,41.38783],[2.19357,41.38624],[2.19575,41.38785],[2.19581,41.38781],[2.19584,41.38765],[2.196,41.38751],[2.19623,41.38745],[2.19642,41.38747],[2.19972,41.38499],[2.19999,41.38519],[2.19976,41.38532],[2.19984,41.38538],[2.19959,41.3857],[2.19942,41.38558],[2.19929,41.38568],[2.19949,41.38583],[2.19831,41.38672],[2.19843,41.38681],[2.19831,41.3869],[2.20022,41.38833],[2.20034,41.38824],[2.20046,41.38833],[2.20196,41.3872],[2.2002,41.38587],[2.20084,41.38539],[2.20112,41.3856],[2.20099,41.3857],[2.20104,41.38574],[2.20117,41.38564],[2.20141,41.38582],[2.2012,41.38597],[2.2024,41.38687],[2.20275,41.38661],[2.20234,41.38609],[2.20193,41.38564],[2.20165,41.38536],[2.20127,41.38501],[2.20075,41.38458],[2.20038,41.38431],[2.20003,41.38411],[2.1999,41.38415],[2.19947,41.38395],[2.1994,41.38389],[2.19926,41.38386],[2.19887,41.38367],[2.19887,41.38361],[2.19901,41.3835],[2.1992,41.38345],[2.1994,41.38336],[2.19978,41.38335],[2.20006,41.38347],[2.20023,41.38362],[2.20054,41.38373],[2.20059,41.38384],[2.20067,41.38386],[2.20059,41.38397],[2.20037,41.38392],[2.20026,41.38381],[2.20015,41.38379],[2.19987,41.38366],[2.19975,41.38367],[2.20015,41.38387],[2.20051,41.38408],[2.20073,41.38423],[2.20129,41.38467],[2.20166,41.38498],[2.20214,41.38545],[2.2024,41.38573],[2.20273,41.38611],[2.20314,41.38665],[2.20344,41.3871],[2.20362,41.38742],[2.20305,41.38784],[2.20325,41.38792],[2.20343,41.3881],[2.20331,41.3881],[2.20303,41.38792],[2.20283,41.38765],[2.20275,41.3877],[2.20149,41.38865],[2.20167,41.38917],[2.20185,41.38952],[2.20207,41.3898],[2.20256,41.39022],[2.203,41.3905],[2.20355,41.39078],[2.20389,41.39092],[2.20442,41.39108],[2.20475,41.39111],[2.20492,41.39098],[2.20499,41.39098],[2.20576,41.39039],[2.20589,41.39049],[2.20537,41.39089],[2.20537,41.39092],[2.20482,41.39135],[2.20469,41.3914],[2.20457,41.39149],[2.20482,41.39168],[2.20518,41.39136],[2.20551,41.39111],[2.20561,41.39108],[2.20614,41.39068],[2.20627,41.39077],[2.20573,41.39118],[2.20574,41.39124],[2.20547,41.39144],[2.20551,41.39155],[2.20568,41.39182],[2.20636,41.3928],[2.20703,41.39362],[2.20763,41.39427],[2.2082,41.39479],[2.20854,41.39504],[2.2089,41.39525],[2.20943,41.39548],[2.21007,41.39565],[2.21056,41.39527],[2.21078,41.39515],[2.21132,41.39474],[2.21145,41.39484],[2.21091,41.39525],[2.21113,41.39541],[2.21125,41.39531],[2.21131,41.39535],[2.21172,41.39504],[2.21185,41.39513],[2.21132,41.39554],[2.21132,41.39556],[2.21074,41.39603],[2.21111,41.39678],[2.21154,41.39731],[2.21164,41.39747],[2.21201,41.39782],[2.21212,41.39795],[2.2128,41.39858],[2.21323,41.3989],[2.21364,41.39914],[2.21407,41.39929],[2.2144,41.39935],[2.21499,41.39893],[2.21502,41.39885],[2.21516,41.39874],[2.21548,41.39858],[2.21558,41.39865],[2.21542,41.39876],[2.21534,41.39886],[2.21542,41.39892],[2.21565,41.3988],[2.2157,41.39891],[2.21556,41.39904],[2.21533,41.39916],[2.21473,41.39964],[2.21456,41.39974],[2.21492,41.40048],[2.2153,41.40105],[2.21571,41.40155],[2.21615,41.40195],[2.21661,41.40228],[2.21717,41.40254],[2.21734,41.40259],[2.21794,41.40219],[2.21822,41.40202],[2.21842,41.40183],[2.21861,41.40172],[2.21878,41.40154],[2.2188,41.40164],[2.21834,41.40204],[2.21831,41.40212],[2.21788,41.40243],[2.21757,41.40262],[2.21752,41.40267],[2.21716,41.40291],[2.21715,41.40294],[2.21756,41.40353],[2.218,41.404],[2.21849,41.40438],[2.21887,41.4046],[2.21922,41.40478],[2.21987,41.40502],[2.22,41.40505],[2.22019,41.40514],[2.22031,41.40515],[2.22182,41.40402],[2.22215,41.40388],[2.22196,41.4036],[2.22204,41.40349],[2.22222,41.40357],[2.22246,41.4038],[2.22262,41.40404],[2.22293,41.40463],[2.22313,41.40488],[2.22328,41.40501],[2.22338,41.40515],[2.22336,41.40531],[2.2232,41.40525],[2.22286,41.40498],[2.22257,41.40453],[2.22237,41.4042],[2.22224,41.40409],[2.22217,41.40408],[2.22198,41.40415],[2.22172,41.40436],[2.22175,41.40448],[2.22152,41.4047],[2.22146,41.40466],[2.22097,41.40514],[2.22152,41.40553],[2.22182,41.40532],[2.22175,41.40515],[2.2218,41.40508],[2.22192,41.40508],[2.22227,41.40534],[2.22245,41.40534],[2.22268,41.40539],[2.22286,41.40564],[2.22291,41.40574],[2.22308,41.40584],[2.22317,41.40601],[2.22343,41.40618],[2.22365,41.40619],[2.22376,41.40625],[2.22386,41.40625],[2.22394,41.40632],[2.2242,41.40618],[2.22433,41.40617],[2.22453,41.40626],[2.22469,41.40647],[2.22492,41.40643],[2.22511,41.40632],[2.22513,41.40627],[2.2255,41.40596],[2.22564,41.40594],[2.22578,41.40602],[2.22581,41.40612],[2.22576,41.40625],[2.22564,41.40637],[2.22529,41.40654],[2.22478,41.40694],[2.22502,41.40734],[2.22547,41.40702],[2.22543,41.40696],[2.2256,41.40682],[2.22566,41.40673],[2.22588,41.40661],[2.22606,41.40661],[2.2262,41.40671],[2.22616,41.40689],[2.22604,41.40694],[2.22616,41.40719],[2.22611,41.40725],[2.2262,41.40732],[2.22635,41.4072],[2.22642,41.40709],[2.22651,41.40713],[2.22649,41.40729],[2.22654,41.40747],[2.22652,41.40765],[2.22656,41.40776],[2.22667,41.40786],[2.22674,41.40788],[2.22687,41.4076],[2.22693,41.40763],[2.22701,41.40785],[2.22701,41.40796],[2.22694,41.40801],[2.22692,41.40811],[2.22706,41.40812],[2.22717,41.40808],[2.22742,41.40809],[2.22749,41.40817],[2.22755,41.40833],[2.22764,41.40841],[2.2277,41.40856],[2.228,41.40899],[2.22804,41.40922],[2.22801,41.40938],[2.22789,41.40962],[2.22769,41.40958],[2.2275,41.40941],[2.22737,41.40899],[2.22724,41.40895],[2.22698,41.40841],[2.227,41.40828],[2.22689,41.40825],[2.2268,41.40811],[2.22678,41.40799],[2.22657,41.40789],[2.22644,41.40777],[2.22642,41.40764],[2.22627,41.40747],[2.22606,41.40735],[2.22609,41.40731],[2.22597,41.40715],[2.22575,41.4071],[2.22543,41.40732],[2.22583,41.40794],[2.22581,41.40778],[2.22595,41.40775],[2.22608,41.40791],[2.2259,41.40805],[2.22618,41.40848],[2.22612,41.40854],[2.22636,41.4089],[2.22641,41.40865],[2.22634,41.40865],[2.22626,41.40847],[2.2264,41.40841],[2.22653,41.40858],[2.22645,41.40863],[2.22642,41.4089],[2.22664,41.40924],[2.22676,41.40932],[2.2268,41.40945],[2.22675,41.40966],[2.22721,41.41038],[2.22325,41.41199],[2.22288,41.41216],[2.22279,41.41232],[2.22098,41.41308],[2.22137,41.41351],[2.22088,41.41377],[2.22065,41.41395],[2.22044,41.41417],[2.21819,41.41729],[2.21779,41.41699],[2.21609,41.41827],[2.21632,41.41844],[2.21555,41.41902],[2.21504,41.41941],[2.21402,41.42017],[2.21379,41.42],[2.21259,41.4209],[2.21248,41.42081],[2.21197,41.4212],[2.21194,41.42118],[2.21128,41.42167],[2.21182,41.42207],[2.21145,41.42238],[2.21132,41.42257],[2.21113,41.42321],[2.21095,41.42347],[2.21077,41.42363],[2.2106,41.42376],[2.21037,41.42389],[2.21005,41.42403],[2.2098,41.42417],[2.2096,41.42434],[2.20949,41.42447],[2.20937,41.42472],[2.20926,41.42519],[2.20909,41.42534],[2.20866,41.42502],[2.20843,41.42518],[2.20818,41.42507],[2.20777,41.42499],[2.20754,41.425],[2.2073,41.42518],[2.20677,41.42542],[2.20607,41.42561],[2.20614,41.4258],[2.20635,41.42605],[2.20646,41.4264],[2.20676,41.42675],[2.20698,41.42665],[2.20736,41.42711],[2.20684,41.42736],[2.20702,41.42758],[2.20298,41.42948],[2.20195,41.42986],[2.20153,41.42999],[2.2011,41.43009],[2.20069,41.43016],[2.20023,41.43018],[2.1999,41.43016],[2.19917,41.43008],[2.19894,41.43003],[2.19869,41.42994],[2.1984,41.42982],[2.19811,41.42963],[2.19757,41.42921],[2.19732,41.42894],[2.19721,41.42875],[2.19696,41.42797],[2.19662,41.42728],[2.19643,41.42666],[2.19655,41.42659],[2.19645,41.42633],[2.19604,41.4249],[2.19589,41.42442],[2.1956,41.42268],[2.19549,41.42234],[2.19522,41.42239],[2.19403,41.41882],[2.19349,41.41734],[2.19329,41.4168],[2.19325,41.41664],[2.19323,41.41632],[2.19333,41.41593],[2.19354,41.4154],[2.19241,41.41455],[2.19111,41.41554],[2.19098,41.41517],[2.19015,41.41454],[2.18903,41.41368],[2.188,41.41446],[2.1869,41.41529],[2.18336,41.41795],[2.18048,41.41583],[2.17547,41.41204],[2.17888,41.40945],[2.18338,41.40604]]]},"properties":{"distrito":"d10","id":"d10"}}
]}